start=new Date('2023-03-25T00:00:00.000Z').valueOf();
sats=[{"ELEMENT_SET_NO":"999","MEAN_ELEMENT_THEORY":"SGP4","TLE_LINE1":"1 53823U 22114F   23083.44027485  .00027892  00000-0  17614-2 0  9990","MEAN_MOTION":"15.08886267","EPHEMERIS_TYPE":"0","CLASSIFICATION_TYPE":"U","CENTER_NAME":"EARTH","FILE":"3869846","RA_OF_ASC_NODE":"72.7973","APOAPSIS":"540.703","REF_FRAME":"TEME","NORAD_CAT_ID":"53823","MEAN_MOTION_DDOT":"0.0000000000000","REV_AT_EPOCH":"3023","SEMIMAJOR_AXIS":"6917.739","RCS_SIZE":"LARGE","COUNTRY_CODE":"US","EPOCH":"2023-03-24T10:33:59.747040","ECCENTRICITY":"0.00015880","OBJECT_TYPE":"PAYLOAD","OBJECT_ID":"2022-114F","TIME_SYSTEM":"UTC","PERIOD":"95.435","PERIAPSIS":"538.505","MEAN_MOTION_DOT":"0.00027892","TLE_LINE2":"2 53823  53.2191  72.7973 0001588 109.6591 250.4573 15.08886267 30237","MEAN_ANOMALY":"250.4573","ARG_OF_PERICENTER":"109.6591","DECAY_DATE":null,"GP_ID":"228793544","INCLINATION":"53.2191","OBJECT_NAME":"STARLINK-4748","BSTAR":"0.00176140000000","LAUNCH_DATE":"2022-09-19","SITE":"AFETR"},{"CLASSIFICATION_TYPE":"U","CENTER_NAME":"EARTH","ELEMENT_SET_NO":"999","MEAN_ELEMENT_THEORY":"SGP4","TLE_LINE1":"1 53824U 22114G   23083.80876772 -.00004869  00000-0 -28831-3 0  9997","MEAN_MOTION":"15.08806114","EPHEMERIS_TYPE":"0","SEMIMAJOR_AXIS":"6917.984","RCS_SIZE":"LARGE","COUNTRY_CODE":"US","EPOCH":"2023-03-24T19:24:37.531008","ECCENTRICITY":"0.00008010","OBJECT_TYPE":"PAYLOAD","OBJECT_ID":"2022-114G","FILE":"3870109","APOAPSIS":"540.403","RA_OF_ASC_NODE":"116.4877","REF_FRAME":"TEME","NORAD_CAT_ID":"53824","MEAN_MOTION_DDOT":"0.0000000000000","REV_AT_EPOCH":"2956","PERIOD":"95.440","PERIAPSIS":"539.295","MEAN_MOTION_DOT":"-0.00004869","TLE_LINE2":"2 53824  53.2179 116.4877 0000801 126.1814 233.9252 15.08806114 29569","MEAN_ANOMALY":"233.9252","TIME_SYSTEM":"UTC","GP_ID":"228824916","INCLINATION":"53.2179","OBJECT_NAME":"STARLINK-4757","BSTAR":"-0.00028831000000","LAUNCH_DATE":"2022-09-19","SITE":"AFETR","DECAY_DATE":null,"ARG_OF_PERICENTER":"126.1814"},{"MEAN_MOTION_DDOT":"0.0000000000000","REV_AT_EPOCH":"2965","NORAD_CAT_ID":"53825","REF_FRAME":"TEME","APOAPSIS":"540.955","RA_OF_ASC_NODE":"116.5099","FILE":"3870109","OBJECT_ID":"2022-114H","OBJECT_TYPE":"PAYLOAD","ECCENTRICITY":"0.00017350","EPOCH":"2023-03-24T19:29:54.108384","COUNTRY_CODE":"US","SEMIMAJOR_AXIS":"6917.890","RCS_SIZE":"LARGE","MEAN_MOTION":"15.08836875","EPHEMERIS_TYPE":"0","TLE_LINE1":"1 53825U 22114H   23083.81243181 -.00001325  00000-0 -65143-4 0  9993","ELEMENT_SET_NO":"999","MEAN_ELEMENT_THEORY":"SGP4","CENTER_NAME":"EARTH","CLASSIFICATION_TYPE":"U","DECAY_DATE":null,"ARG_OF_PERICENTER":"69.4875","SITE":"AFETR","LAUNCH_DATE":"2022-09-19","BSTAR":"-0.00006514300000","GP_ID":"228825666","INCLINATION":"53.2166","OBJECT_NAME":"STARLINK-4751","TIME_SYSTEM":"UTC","MEAN_ANOMALY":"290.6303","TLE_LINE2":"2 53825  53.2166 116.5099 0001735  69.4875 290.6303 15.08836875 29650","PERIAPSIS":"538.555","MEAN_MOTION_DOT":"-0.00001325","PERIOD":"95.438"},{"CENTER_NAME":"EARTH","CLASSIFICATION_TYPE":"U","MEAN_MOTION":"15.08843834","EPHEMERIS_TYPE":"0","TLE_LINE1":"1 53826U 22114J   23083.79400228  .00000595  00000-0  55476-4 0  9992","ELEMENT_SET_NO":"999","MEAN_ELEMENT_THEORY":"SGP4","OBJECT_TYPE":"PAYLOAD","OBJECT_ID":"2022-114J","EPOCH":"2023-03-24T19:03:21.796992","ECCENTRICITY":"0.00014740","COUNTRY_CODE":"US","SEMIMAJOR_AXIS":"6917.869","RCS_SIZE":"LARGE","REV_AT_EPOCH":"2965","MEAN_MOTION_DDOT":"0.0000000000000","REF_FRAME":"TEME","NORAD_CAT_ID":"53826","APOAPSIS":"540.753","RA_OF_ASC_NODE":"116.3951","FILE":"3870109","MEAN_ANOMALY":"257.9245","PERIAPSIS":"538.714","MEAN_MOTION_DOT":"0.00000595","TLE_LINE2":"2 53826  53.2157 116.3951 0001474 102.1912 257.9245 15.08843834 29657","PERIOD":"95.437","TIME_SYSTEM":"UTC","LAUNCH_DATE":"2022-09-19","SITE":"AFETR","BSTAR":"0.00005547600000","GP_ID":"228825918","INCLINATION":"53.2157","OBJECT_NAME":"STARLINK-4756","DECAY_DATE":null,"ARG_OF_PERICENTER":"102.1912"},{"TIME_SYSTEM":"UTC","MEAN_ANOMALY":"279.7258","TLE_LINE2":"2 53827  53.2156 116.4647 0001516  80.3906 279.7258 15.08837962 29658","MEAN_MOTION_DOT":"-0.00002847","PERIAPSIS":"538.703","PERIOD":"95.438","ARG_OF_PERICENTER":"80.3906","DECAY_DATE":null,"SITE":"AFETR","LAUNCH_DATE":"2022-09-19","BSTAR":"-0.00016087000000","OBJECT_NAME":"STARLINK-4764","GP_ID":"228826662","INCLINATION":"53.2156","EPHEMERIS_TYPE":"0","MEAN_MOTION":"15.08837962","TLE_LINE1":"1 53827U 22114K   23083.80505677 -.00002847  00000-0 -16087-3 0  9997","ELEMENT_SET_NO":"999","MEAN_ELEMENT_THEORY":"SGP4","CENTER_NAME":"EARTH","CLASSIFICATION_TYPE":"U","REV_AT_EPOCH":"2965","MEAN_MOTION_DDOT":"0.0000000000000","NORAD_CAT_ID":"53827","REF_FRAME":"TEME","RA_OF_ASC_NODE":"116.4647","APOAPSIS":"540.800","FILE":"3870109","OBJECT_ID":"2022-114K","OBJECT_TYPE":"PAYLOAD","ECCENTRICITY":"0.00015160","EPOCH":"2023-03-24T19:19:16.904928","COUNTRY_CODE":"US","RCS_SIZE":"LARGE","SEMIMAJOR_AXIS":"6917.887"},{"RA_OF_ASC_NODE":"116.3744","APOAPSIS":"540.586","FILE":"3870109","REV_AT_EPOCH":"2965","MEAN_MOTION_DDOT":"0.0000000000000","NORAD_CAT_ID":"53828","REF_FRAME":"TEME","COUNTRY_CODE":"US","RCS_SIZE":"LARGE","SEMIMAJOR_AXIS":"6917.877","OBJECT_ID":"2022-114L","OBJECT_TYPE":"PAYLOAD","ECCENTRICITY":"0.00012200","EPOCH":"2023-03-24T18:58:03.492480","TLE_LINE1":"1 53828U 22114L   23083.79031820  .00000054  00000-0  21450-4 0  9997","ELEMENT_SET_NO":"999","MEAN_ELEMENT_THEORY":"SGP4","EPHEMERIS_TYPE":"0","MEAN_MOTION":"15.08841239","CLASSIFICATION_TYPE":"U","CENTER_NAME":"EARTH","ARG_OF_PERICENTER":"102.7861","DECAY_DATE":null,"BSTAR":"0.00002145000000","GP_ID":"228825416","INCLINATION":"53.2162","OBJECT_NAME":"STARLINK-4760","SITE":"AFETR","LAUNCH_DATE":"2022-09-19","TIME_SYSTEM":"UTC","PERIOD":"95.437","MEAN_ANOMALY":"257.3267","TLE_LINE2":"2 53828  53.2162 116.3744 0001220 102.7861 257.3267 15.08841239 29658","MEAN_MOTION_DOT":"0.00000054","PERIAPSIS":"538.898"},{"DECAY_DATE":null,"ARG_OF_PERICENTER":"116.4439","GP_ID":"228825167","OBJECT_NAME":"STARLINK-4759","INCLINATION":"53.2150","BSTAR":"-0.00017267000000","SITE":"AFETR","LAUNCH_DATE":"2022-09-19","TIME_SYSTEM":"UTC","PERIOD":"95.438","TLE_LINE2":"2 53829  53.2150 116.4397 0000586 116.4439 243.6614 15.08838085 29657","MEAN_MOTION_DOT":"-0.00003034","PERIAPSIS":"539.346","MEAN_ANOMALY":"243.6614","FILE":"3870109","APOAPSIS":"540.157","RA_OF_ASC_NODE":"116.4397","NORAD_CAT_ID":"53829","REF_FRAME":"TEME","REV_AT_EPOCH":"2965","MEAN_MOTION_DDOT":"0.0000000000000","SEMIMAJOR_AXIS":"6917.886","RCS_SIZE":"LARGE","COUNTRY_CODE":"US","ECCENTRICITY":"0.00005860","EPOCH":"2023-03-24T19:13:58.216800","OBJECT_ID":"2022-114M","OBJECT_TYPE":"PAYLOAD","ELEMENT_SET_NO":"999","MEAN_ELEMENT_THEORY":"SGP4","TLE_LINE1":"1 53829U 22114M   23083.80136825 -.00003034  00000-0 -17267-3 0  9994","MEAN_MOTION":"15.08838085","EPHEMERIS_TYPE":"0","CLASSIFICATION_TYPE":"U","CENTER_NAME":"EARTH"},{"INCLINATION":"53.2175","GP_ID":"228826418","OBJECT_NAME":"STARLINK-4761","BSTAR":"-0.00095090000000","SITE":"AFETR","LAUNCH_DATE":"2022-09-19","DECAY_DATE":null,"ARG_OF_PERICENTER":"95.7700","PERIOD":"95.439","TLE_LINE2":"2 53830  53.2175 116.3227 0001918  95.7700 264.3511 15.08812053 29650","PERIAPSIS":"538.504","MEAN_MOTION_DOT":"-0.00015378","MEAN_ANOMALY":"264.3511","TIME_SYSTEM":"UTC","RCS_SIZE":"LARGE","SEMIMAJOR_AXIS":"6917.966","COUNTRY_CODE":"US","ECCENTRICITY":"0.00019180","EPOCH":"2023-03-24T18:47:27.324960","OBJECT_ID":"2022-114N","OBJECT_TYPE":"PAYLOAD","FILE":"3870109","RA_OF_ASC_NODE":"116.3227","APOAPSIS":"541.158","NORAD_CAT_ID":"53830","REF_FRAME":"TEME","MEAN_MOTION_DDOT":"0.0000000000000","REV_AT_EPOCH":"2965","CLASSIFICATION_TYPE":"U","CENTER_NAME":"EARTH","ELEMENT_SET_NO":"999","MEAN_ELEMENT_THEORY":"SGP4","TLE_LINE1":"1 53830U 22114N   23083.78295515 -.00015378  00000-0 -95090-3 0  9999","EPHEMERIS_TYPE":"0","MEAN_MOTION":"15.08812053"},{"MEAN_MOTION":"15.08862722","EPHEMERIS_TYPE":"0","ELEMENT_SET_NO":"999","MEAN_ELEMENT_THEORY":"SGP4","TLE_LINE1":"1 53831U 22114P   23083.46647757  .00002391  00000-0  16819-3 0  9995","CENTER_NAME":"EARTH","CLASSIFICATION_TYPE":"U","REF_FRAME":"TEME","NORAD_CAT_ID":"53831","REV_AT_EPOCH":"2960","MEAN_MOTION_DDOT":"0.0000000000000","FILE":"3869846","APOAPSIS":"540.652","RA_OF_ASC_NODE":"117.9012","EPOCH":"2023-03-24T11:11:43.662048","ECCENTRICITY":"0.00014110","OBJECT_TYPE":"PAYLOAD","OBJECT_ID":"2022-114P","SEMIMAJOR_AXIS":"6917.811","RCS_SIZE":"LARGE","COUNTRY_CODE":"US","TIME_SYSTEM":"UTC","PERIAPSIS":"538.700","MEAN_MOTION_DOT":"0.00002391","TLE_LINE2":"2 53831  53.2177 117.9012 0001411  99.5481 260.5671 15.08862722 29606","MEAN_ANOMALY":"260.5671","PERIOD":"95.436","ARG_OF_PERICENTER":"99.5481","DECAY_DATE":null,"LAUNCH_DATE":"2022-09-19","SITE":"AFETR","GP_ID":"228793545","OBJECT_NAME":"STARLINK-4649","INCLINATION":"53.2177","BSTAR":"0.00016819000000"},{"TLE_LINE1":"1 53832U 22114Q   23083.37812860  .00007686  00000-0  50005-3 0  9992","MEAN_ELEMENT_THEORY":"SGP4","ELEMENT_SET_NO":"999","EPHEMERIS_TYPE":"0","MEAN_MOTION":"15.08871858","CLASSIFICATION_TYPE":"U","CENTER_NAME":"EARTH","APOAPSIS":"540.606","RA_OF_ASC_NODE":"118.0679","FILE":"3869846","REV_AT_EPOCH":"2959","MEAN_MOTION_DDOT":"0.0000000000000","NORAD_CAT_ID":"53832","REF_FRAME":"TEME","COUNTRY_CODE":"US","SEMIMAJOR_AXIS":"6917.783","RCS_SIZE":"LARGE","OBJECT_ID":"2022-114Q","OBJECT_TYPE":"PAYLOAD","ECCENTRICITY":"0.00013850","EPOCH":"2023-03-24T09:04:30.311040","TIME_SYSTEM":"UTC","PERIOD":"95.436","MEAN_ANOMALY":"267.7723","TLE_LINE2":"2 53832  53.2179 118.0679 0001385  92.3428 267.7723 15.08871858 29597","MEAN_MOTION_DOT":"0.00007686","PERIAPSIS":"538.690","DECAY_DATE":null,"ARG_OF_PERICENTER":"92.3428","BSTAR":"0.00050005000000","GP_ID":"228793796","INCLINATION":"53.2179","OBJECT_NAME":"STARLINK-4747","SITE":"AFETR","LAUNCH_DATE":"2022-09-19"}];
